NORAD_CAT_ID,OBJECT_NAME,OBJECT_TYPE,EPOCH,MEAN_MOTION,ECCENTRICITY,INCLINATION,RA_OF_ASC_NODE,ARG_OF_PERICENTER,MEAN_ANOMALY,BSTAR,MEAN_MOTION_DOT,MEAN_MOTION_DDOT,TLE_LINE0,TLE_LINE1,TLE_LINE2,SEMIMAJOR_AXIS,PERIOD,APOGEE,PERIGEE,DECAYED
52699.0,STARLINK-3987,PAYLOAD,2023-08-30 12:16:08,15.08838765,0.0001185,53.2179,318.9699,94.6988,265.4139,6.6043e-05,7.63e-06,0.0,0 STARLINK-3987,1 52699U 22053AV  23242.51121072  .00000763  00000-0  66043-4 0  9994,2 52699  53.2179 318.9699 0001185  94.6988 265.4139 15.08838765 71597,6917.884,95.438,540.569,538.929,0.0
52699.0,STARLINK-3987,PAYLOAD,2023-08-31 05:45:23,15.08830413,0.0001221,53.2176,315.6982,93.6462,266.4669,1.695e-05,-1.8e-07,0.0,0 STARLINK-3987,1 52699U 22053AV  23243.23985886 -.00000018  00000-0  16950-4 0  9991,2 52699  53.2176 315.6982 0001221  93.6462 266.4669 15.08830413 71704,6917.91,95.438,540.619,538.93,0.0
52699.0,STARLINK-3987,PAYLOAD,2023-08-31 13:42:18,15.08847075,7.93e-05,53.2183,314.213,77.2307,282.8774,0.00014178,1.97e-05,0.0,0 STARLINK-3987,1 52699U 22053AV  23243.57104516  .00001970  00000-0  14178-3 0  9997,2 52699  53.2183 314.2130 0000793  77.2307 282.8774 15.08847075 71757,6917.859,95.437,540.272,539.175,0.0
52699.0,STARLINK-3987,PAYLOAD,2023-09-01 13:33:06,15.08833617,0.0001199,53.2177,309.7511,83.1398,276.973,9.5463e-05,1.232e-05,0.0,0 STARLINK-3987,1 52699U 22053AV  23244.56465838  .00001232  00000-0  95463-4 0  9992,2 52699  53.2177 309.7511 0001199  83.1398 276.9730 15.08833617 72337,6917.9,95.438,540.594,538.935,0.0
52699.0,STARLINK-3987,PAYLOAD,2023-09-02 10:13:06,15.088453,0.0001406,53.2157,305.8837,86.115,274.0002,0.00012195,1.654e-05,0.0,0 STARLINK-3987,1 52699U 22053AV  23245.42577034  .00001654  00000-0  12195-3 0  9998,2 52699  53.2157 305.8837 0001406  86.1150 274.0002 15.08845300 72033,6917.864,95.437,540.702,538.757,0.0
52699.0,STARLINK-3987,PAYLOAD,2023-09-02 13:23:52,15.08849054,0.0001317,53.2169,305.2883,85.7542,274.3601,0.00011378,1.524e-05,0.0,0 STARLINK-3987,1 52699U 22053AV  23245.55824763  .00001524  00000-0  11378-3 0  9994,2 52699  53.2169 305.2883 0001317  85.7542 274.3601 15.08849054 72489,6917.853,95.437,540.629,538.807,0.0
52699.0,STARLINK-3987,PAYLOAD,2023-09-02 21:20:48,15.08845218,0.0001199,53.2177,303.8011,90.3916,269.7214,0.00013245,1.821e-05,0.0,0 STARLINK-3987,1 52699U 22053AV  23245.88944828  .00001821  00000-0  13245-3 0  9990,2 52699  53.2177 303.8011 0001199  90.3916 269.7214 15.08845218 72532,6917.864,95.437,540.559,538.9,0.0
52699.0,STARLINK-3987,PAYLOAD,2023-09-03 10:03:55,15.08823526,0.0001064,53.2178,301.4221,98.5133,261.5979,-0.00011551,-2.125e-05,0.0,0 STARLINK-3987,1 52699U 22053AV  23246.41939246 -.00002125  00000-0 -11551-3 0  9996,2 52699  53.2178 301.4221 0001064  98.5133 261.5979 15.08823526 72189,6917.931,95.439,540.532,539.06,0.0
52699.0,STARLINK-3987,PAYLOAD,2023-09-04 09:54:41,15.08837611,0.0001305,53.218,296.9611,97.5038,262.6102,8.6639e-06,-1.5e-06,0.0,0 STARLINK-3987,1 52699U 22053AV  23247.41298459 -.00000150  00000-0  86639-5 0  9997,2 52699  53.2180 296.9611 0001305  97.5038 262.6102 15.08837611 72331,6917.888,95.438,540.655,538.85,0.0
52699.0,STARLINK-3987,PAYLOAD,2023-09-04 13:05:27,15.08844355,0.0001263,53.2177,296.3664,100.3909,259.7225,-1.9135e-05,-5.92e-06,0.0,0 STARLINK-3987,1 52699U 22053AV  23247.54546149 -.00000592  00000-0 -19135-4 0  9990,2 52699  53.2177 296.3664 0001263 100.3909 259.7225 15.08844355 72787,6917.867,95.437,540.606,538.858,0.0
52699.0,STARLINK-3987,PAYLOAD,2023-09-05 11:20:51,15.08842729,0.00013,53.217,292.2042,100.6099,259.5039,0.00027553,4.1e-05,0.0,0 STARLINK-3987,1 52699U 22053AV  23248.47281959  .00004100  00000-0  27553-3 0  9997,2 52699  53.2170 292.2042 0001300 100.6099 259.5039 15.08842729 72492,6917.872,95.437,540.636,538.838,0.0
52699.0,STARLINK-3987,PAYLOAD,2023-09-05 12:56:15,15.08846954,0.0001314,53.2161,291.9067,98.8821,261.232,0.00036172,5.475e-05,0.0,0 STARLINK-3987,1 52699U 22053AV  23248.53906262  .00005475  00000-0  36172-3 0  9998,2 52699  53.2161 291.9067 0001314  98.8821 261.2320 15.08846954 72937,6917.859,95.437,540.633,538.815,0.0
52699.0,STARLINK-3987,PAYLOAD,2023-09-06 12:47:01,15.08852436,0.0001316,53.2153,287.4466,95.9268,264.1874,0.00017413,2.485e-05,0.0,0 STARLINK-3987,1 52699U 22053AV  23249.53265577  .00002485  00000-0  17413-3 0  9991,2 52699  53.2153 287.4466 0001316  95.9268 264.1874 15.08852436 73081,6917.842,95.437,540.618,538.797,0.0
52699.0,STARLINK-3987,PAYLOAD,2023-09-06 19:08:34,15.08851731,0.000129,53.2156,286.2578,81.6794,278.4345,0.00013825,1.914e-05,0.0,0 STARLINK-3987,1 52699U 22053AV  23249.79761600  .00001914  00000-0  13825-3 0  9996,2 52699  53.2156 286.2578 0001290  81.6794 278.4345 15.08851731 73125,6917.845,95.437,540.602,538.817,0.0
52699.0,STARLINK-3987,PAYLOAD,2023-09-07 01:30:06,15.08845032,0.0002144,53.2141,285.0676,82.4717,277.6518,8.2563e-06,-1.57e-06,0.0,0 STARLINK-3987,1 52699U 22053AV  23250.06258034 -.00000157  00000-0  82563-5 0  9996,2 52699  53.2141 285.0676 0002144  82.4717 277.6518 15.08845032 72734,6917.865,95.437,541.213,538.247,0.0
52699.0,STARLINK-3987,PAYLOAD,2023-09-07 07:51:39,15.08838456,0.0001438,53.217,283.8798,92.2823,267.8334,-5.4491e-05,-1.155e-05,0.0,0 STARLINK-3987,1 52699U 22053AV  23250.32754574 -.00001155  00000-0 -54491-4 0  9993,2 52699  53.2170 283.8798 0001438  92.2823 267.8334 15.08838456 72772,6917.885,95.438,540.745,538.755,0.0
52699.0,STARLINK-3987,PAYLOAD,2023-09-07 12:37:49,15.08840545,0.0001505,53.2182,282.9877,100.0028,260.1134,-3.0849e-05,-7.79e-06,0.0,0 STARLINK-3987,1 52699U 22053AV  23250.52626532 -.00000779  00000-0 -30849-4 0  9999,2 52699  53.2182 282.9877 0001505 100.0028 260.1134 15.08840545 73231,6917.879,95.438,540.785,538.703,0.0
52699.0,STARLINK-3987,PAYLOAD,2023-09-07 18:59:21,15.08843273,0.0001687,53.2183,281.7986,75.2433,284.8746,-6.8423e-05,-1.377e-05,0.0,0 STARLINK-3987,1 52699U 22053AV  23250.79122527 -.00001377  00000-0 -68423-4 0  9997,2 52699  53.2183 281.7986 0001687  75.2433 284.8746 15.08843273 73271,6917.87,95.437,540.902,538.568,0.0
52699.0,STARLINK-3987,PAYLOAD,2023-09-08 09:17:49,15.08845563,0.0001347,53.2156,279.1211,83.8366,276.278,8.6049e-05,1.082e-05,0.0,0 STARLINK-3987,1 52699U 22053AV  23251.38737836  .00001082  00000-0  86049-4 0  9993,2 52699  53.2156 279.1211 0001347  83.8366 276.2780 15.08845563 72935,6917.863,95.437,540.66,538.797,0.0
52699.0,STARLINK-3987,PAYLOAD,2023-09-08 12:28:35,15.08848716,0.0001364,53.2158,278.5268,81.8841,278.2306,0.00012099,1.639e-05,0.0,0 STARLINK-3987,1 52699U 22053AV  23251.51985670  .00001639  00000-0  12099-3 0  9990,2 52699  53.2158 278.5268 0001364  81.8841 278.2306 15.08848716 73386,6917.854,95.437,540.662,538.775,0.0
52699.0,STARLINK-3987,PAYLOAD,2023-09-08 18:50:08,15.08836694,0.0001316,53.2161,277.338,88.6782,271.4361,0.00012031,1.627e-05,0.0,0 STARLINK-3987,1 52699U 22053AV  23251.78482335  .00001627  00000-0  12031-3 0  9992,2 52699  53.2161 277.3380 0001316  88.6782 271.4361 15.08836694 73421,6917.89,95.438,540.666,538.845,0.0
52699.0,STARLINK-3987,PAYLOAD,2023-09-09 02:47:04,15.08836507,0.0001372,53.2156,275.8499,85.3116,274.8033,0.00017379,2.479e-05,0.0,0 STARLINK-3987,1 52699U 22053AV  23252.11602555  .00002479  00000-0  17379-3 0  9994,2 52699  53.2156 275.8499 0001372  85.3116 274.8033 15.08836507 73040,6917.891,95.438,540.705,538.807,0.0
52699.0,STARLINK-3987,PAYLOAD,2023-09-09 09:08:36,15.08839976,0.000145,53.2157,274.6602,84.9716,275.1442,0.00014239,1.979e-05,0.0,0 STARLINK-3987,1 52699U 22053AV  23252.38098366  .00001979  00000-0  14239-3 0  9998,2 52699  53.2157 274.6602 0001450  84.9716 275.1442 15.08839976 73515,6917.88,95.438,540.749,538.742,0.0
52699.0,STARLINK-3987,PAYLOAD,2023-09-10 08:59:24,15.08842714,0.0001489,53.2151,270.1997,81.4981,278.6179,0.00014367,1.999e-05,0.0,0 STARLINK-3987,1 52699U 22053AV  23253.37458442  .00001999  00000-0  14367-3 0  9997,2 52699  53.2151 270.1997 0001489  81.4981 278.6179 15.08842714 73233,6917.872,95.437,540.767,538.707,0.0
52699.0,STARLINK-3987,PAYLOAD,2023-09-11 07:14:48,15.08842734,0.000157,53.2155,266.0373,82.9134,277.2036,0.00015335,2.154e-05,0.0,0 STARLINK-3987,1 52699U 22053AV  23254.30194664  .00002154  00000-0  15335-3 0  9994,2 52699  53.2155 266.0373 0001570  82.9134 277.2036 15.08842734 73808,6917.872,95.437,540.823,538.651,0.0
52699.0,STARLINK-3987,PAYLOAD,2023-09-12 07:05:34,15.08845914,0.0001474,53.2151,261.5762,88.9366,271.1795,0.00015943,2.251e-05,0.0,0 STARLINK-3987,1 52699U 22053AV  23255.29554391  .00002251  00000-0  15943-3 0  9993,2 52699  53.2151 261.5762 0001474  88.9366 271.1795 15.08845914 73956,6917.862,95.437,540.747,538.708,0.0
52699.0,STARLINK-3987,PAYLOAD,2023-09-12 22:59:26,15.08844594,0.0001487,53.2149,258.603,86.5591,273.5571,0.00014513,2.023e-05,0.0,0 STARLINK-3987,1 52699U 22053AV  23255.95794428  .00002023  00000-0  14513-3 0  9992,2 52699  53.2149 258.6030 0001487  86.5591 273.5571 15.08844594 73621,6917.866,95.437,540.76,538.703,0.0
52699.0,STARLINK-3987,PAYLOAD,2023-09-13 06:56:21,15.08847121,0.0001422,53.2145,257.1142,97.0005,263.1149,0.00014931,2.09e-05,0.0,0 STARLINK-3987,1 52699U 22053AV  23256.28914140  .00002090  00000-0  14931-3 0  9992,2 52699  53.2145 257.1142 0001422  97.0005 263.1149 15.08847121 74100,6917.859,95.437,540.707,538.74,0.0
52699.0,STARLINK-3987,PAYLOAD,2023-09-14 00:25:37,15.08834418,0.000148,53.2148,253.8449,92.8238,267.2924,-2.6332e-05,-7.07e-06,0.0,0 STARLINK-3987,1 52699U 22053AV  23257.01778953 -.00000707  00000-0 -26332-4 0  9998,2 52699  53.2148 253.8449 0001480  92.8238 267.2924 15.08834418 73785,6917.897,95.438,540.786,538.739,0.0
52699.0,STARLINK-3987,PAYLOAD,2023-09-14 05:11:46,15.08830966,0.0001479,53.2149,252.9516,99.7148,260.4011,-7.9339e-05,-1.55e-05,0.0,0 STARLINK-3987,1 52699U 22053AV  23257.21651181 -.00001550  00000-0 -79339-4 0  9995,2 52699  53.2149 252.9516 0001479  99.7148 260.4011 15.08830966 74243,6917.908,95.438,540.796,538.75,0.0
